CCSDS_OMM_VERS = 2.0
CREATION_DATE  = 
ORIGINATOR     = 

OBJECT_NAME    = SL-14 R/B
OBJECT_ID      = 1986-046B
CENTER_NAME    = EARTH
REF_FRAME      = TEME
TIME_SYSTEM    = UTC
MEAN_ELEMENT_THEORY = SGP/SGP4

EPOCH          = 2026-01-03T11:19:04.073088
MEAN_MOTION    = 14.85515482
ECCENTRICITY   = .0024555
INCLINATION    = 82.4829
RA_OF_ASC_NODE = 141.7911
ARG_OF_PERICENTER = 84.0340
MEAN_ANOMALY   = 276.3674

EPHEMERIS_TYPE = 0
CLASSIFICATION_TYPE = U
NORAD_CAT_ID   = 16792
ELEMENT_SET_NO = 999
REV_AT_EPOCH   = 11672
BSTAR          = .11937E-3
MEAN_MOTION_DOT = .106E-4
MEAN_MOTION_DDOT = 0

CCSDS_OMM_VERS = 2.0
CREATION_DATE  = 
ORIGINATOR     = 

OBJECT_NAME    = SL-14 R/B
OBJECT_ID      = 1986-055B
CENTER_NAME    = EARTH
REF_FRAME      = TEME
TIME_SYSTEM    = UTC
MEAN_ELEMENT_THEORY = SGP/SGP4

EPOCH          = 2026-01-03T11:16:43.210848
MEAN_MOTION    = 14.85558626
ECCENTRICITY   = .0018748
INCLINATION    = 82.5198
RA_OF_ASC_NODE = 187.9532
ARG_OF_PERICENTER = 183.7088
MEAN_ANOMALY   = 241.8721

EPHEMERIS_TYPE = 0
CLASSIFICATION_TYPE = U
NORAD_CAT_ID   = 16882
ELEMENT_SET_NO = 999
REV_AT_EPOCH   = 10968
BSTAR          = .11741E-3
MEAN_MOTION_DOT = .1042E-4
MEAN_MOTION_DDOT = 0

CCSDS_OMM_VERS = 2.0
CREATION_DATE  = 
ORIGINATOR     = 

OBJECT_NAME    = AJISAI (EGS)
OBJECT_ID      = 1986-061A
CENTER_NAME    = EARTH
REF_FRAME      = TEME
TIME_SYSTEM    = UTC
MEAN_ELEMENT_THEORY = SGP/SGP4

EPOCH          = 2026-01-03T10:25:47.082144
MEAN_MOTION    = 12.44514590
ECCENTRICITY   = .0011317
INCLINATION    = 50.0104
RA_OF_ASC_NODE = 294.0081
ARG_OF_PERICENTER = 120.3465
MEAN_ANOMALY   = 347.6990

EPHEMERIS_TYPE = 0
CLASSIFICATION_TYPE = U
NORAD_CAT_ID   = 16908
ELEMENT_SET_NO = 999
REV_AT_EPOCH   = 45987
BSTAR          = .14579E-3
MEAN_MOTION_DOT = -.77E-6
MEAN_MOTION_DDOT = 0

CCSDS_OMM_VERS = 2.0
CREATION_DATE  = 
ORIGINATOR     = 

OBJECT_NAME    = COSMOS 1812
OBJECT_ID      = 1987-003A
CENTER_NAME    = EARTH
REF_FRAME      = TEME
TIME_SYSTEM    = UTC
MEAN_ELEMENT_THEORY = SGP/SGP4

EPOCH          = 2026-01-03T03:59:42.280512
MEAN_MOTION    = 15.80821533
ECCENTRICITY   = .00047459
INCLINATION    = 82.4860
RA_OF_ASC_NODE = 268.7428
ARG_OF_PERICENTER = 60.1209
MEAN_ANOMALY   = 300.0530

EPHEMERIS_TYPE = 0
CLASSIFICATION_TYPE = U
NORAD_CAT_ID   = 17295
ELEMENT_SET_NO = 999
REV_AT_EPOCH   = 13403
BSTAR          = .90089825E-3
MEAN_MOTION_DOT = .176169E-2
MEAN_MOTION_DDOT = 0

CCSDS_OMM_VERS = 2.0
CREATION_DATE  = 
ORIGINATOR     = 

OBJECT_NAME    = SL-14 R/B
OBJECT_ID      = 1987-024B
CENTER_NAME    = EARTH
REF_FRAME      = TEME
TIME_SYSTEM    = UTC
MEAN_ELEMENT_THEORY = SGP/SGP4

EPOCH          = 2026-01-03T11:04:18.144768
MEAN_MOTION    = 14.86054614
ECCENTRICITY   = .001952
INCLINATION    = 82.5287
RA_OF_ASC_NODE = 154.0492
ARG_OF_PERICENTER = 114.9368
MEAN_ANOMALY   = 245.3879

EPHEMERIS_TYPE = 0
CLASSIFICATION_TYPE = U
NORAD_CAT_ID   = 17567
ELEMENT_SET_NO = 999
REV_AT_EPOCH   = 7844
BSTAR          = .12131E-3
MEAN_MOTION_DOT = .1089E-4
MEAN_MOTION_DDOT = 0

CCSDS_OMM_VERS = 2.0
CREATION_DATE  = 
ORIGINATOR     = 

OBJECT_NAME    = COSMOS 1833
OBJECT_ID      = 1987-027A
CENTER_NAME    = EARTH
REF_FRAME      = TEME
TIME_SYSTEM    = UTC
MEAN_ELEMENT_THEORY = SGP/SGP4

EPOCH          = 2026-01-03T12:30:45.758880
MEAN_MOTION    = 14.13035240
ECCENTRICITY   = .0023559
INCLINATION    = 70.9183
RA_OF_ASC_NODE = 102.9911
ARG_OF_PERICENTER = 301.4546
MEAN_ANOMALY   = 58.4272

EPHEMERIS_TYPE = 0
CLASSIFICATION_TYPE = U
NORAD_CAT_ID   = 17589
ELEMENT_SET_NO = 999
REV_AT_EPOCH   = 111
BSTAR          = .21455E-3
MEAN_MOTION_DOT = .353E-5
MEAN_MOTION_DDOT = 0

CCSDS_OMM_VERS = 2.0
CREATION_DATE  = 
ORIGINATOR     = 

OBJECT_NAME    = SL-16 R/B
OBJECT_ID      = 1987-027B
CENTER_NAME    = EARTH
REF_FRAME      = TEME
TIME_SYSTEM    = UTC
MEAN_ELEMENT_THEORY = SGP/SGP4

EPOCH          = 2026-01-03T11:19:45.761952
MEAN_MOTION    = 14.17156365
ECCENTRICITY   = .0006949
INCLINATION    = 71.0031
RA_OF_ASC_NODE = 53.9245
ARG_OF_PERICENTER = 236.9781
MEAN_ANOMALY   = 123.0676

EPHEMERIS_TYPE = 0
CLASSIFICATION_TYPE = U
NORAD_CAT_ID   = 17590
ELEMENT_SET_NO = 999
REV_AT_EPOCH   = 610
BSTAR          = .70305E-4
MEAN_MOTION_DOT = .94E-6
MEAN_MOTION_DDOT = 0

CCSDS_OMM_VERS = 2.0
CREATION_DATE  = 
ORIGINATOR     = 

OBJECT_NAME    = SL-14 R/B
OBJECT_ID      = 1987-038B
CENTER_NAME    = EARTH
REF_FRAME      = TEME
TIME_SYSTEM    = UTC
MEAN_ELEMENT_THEORY = SGP/SGP4

EPOCH          = 2026-01-03T11:45:42.283008
MEAN_MOTION    = 14.85288363
ECCENTRICITY   = .0019951
INCLINATION    = 82.5013
RA_OF_ASC_NODE = 358.2120
ARG_OF_PERICENTER = 24.5612
MEAN_ANOMALY   = 335.6549

EPHEMERIS_TYPE = 0
CLASSIFICATION_TYPE = U
NORAD_CAT_ID   = 17912
ELEMENT_SET_NO = 999
REV_AT_EPOCH   = 6955
BSTAR          = .11104E-3
MEAN_MOTION_DOT = .98E-5
MEAN_MOTION_DDOT = 0

CCSDS_OMM_VERS = 2.0
CREATION_DATE  = 
ORIGINATOR     = 

OBJECT_NAME    = COSMOS 1844
OBJECT_ID      = 1987-041A
CENTER_NAME    = EARTH
REF_FRAME      = TEME
TIME_SYSTEM    = UTC
MEAN_ELEMENT_THEORY = SGP/SGP4

EPOCH          = 2026-01-03T11:36:46.674720
MEAN_MOTION    = 14.14538584
ECCENTRICITY   = .0028862
INCLINATION    = 70.8987
RA_OF_ASC_NODE = 171.7089
ARG_OF_PERICENTER = 122.7347
MEAN_ANOMALY   = 237.6563

EPHEMERIS_TYPE = 0
CLASSIFICATION_TYPE = U
NORAD_CAT_ID   = 17973
ELEMENT_SET_NO = 999
REV_AT_EPOCH   = 99436
BSTAR          = .13172E-3
MEAN_MOTION_DOT = .206E-5
MEAN_MOTION_DDOT = 0

CCSDS_OMM_VERS = 2.0
CREATION_DATE  = 
ORIGINATOR     = 

OBJECT_NAME    = SL-14 R/B
OBJECT_ID      = 1987-055B
CENTER_NAME    = EARTH
REF_FRAME      = TEME
TIME_SYSTEM    = UTC
MEAN_ELEMENT_THEORY = SGP/SGP4

EPOCH          = 2026-01-03T11:28:33.106944
MEAN_MOTION    = 14.85548144
ECCENTRICITY   = .0019574
INCLINATION    = 82.4983
RA_OF_ASC_NODE = 50.4992
ARG_OF_PERICENTER = 226.3924
MEAN_ANOMALY   = 133.5668

EPHEMERIS_TYPE = 0
CLASSIFICATION_TYPE = U
NORAD_CAT_ID   = 18153
ELEMENT_SET_NO = 999
REV_AT_EPOCH   = 6025
BSTAR          = .99728E-4
MEAN_MOTION_DOT = .888E-5
MEAN_MOTION_DDOT = 0

CCSDS_OMM_VERS = 2.0
CREATION_DATE  = 
ORIGINATOR     = 

OBJECT_NAME    = COSMOS 1867
OBJECT_ID      = 1987-060A
CENTER_NAME    = EARTH
REF_FRAME      = TEME
TIME_SYSTEM    = UTC
MEAN_ELEMENT_THEORY = SGP/SGP4

EPOCH          = 2026-01-03T11:16:27.186240
MEAN_MOTION    = 14.31490878
ECCENTRICITY   = .0013875
INCLINATION    = 65.0102
RA_OF_ASC_NODE = 129.3496
ARG_OF_PERICENTER = 273.3994
MEAN_ANOMALY   = 86.5504

EPHEMERIS_TYPE = 0
CLASSIFICATION_TYPE = U
NORAD_CAT_ID   = 18187
ELEMENT_SET_NO = 999
REV_AT_EPOCH   = 1060
BSTAR          = .62063E-4
MEAN_MOTION_DOT = .65E-6
MEAN_MOTION_DDOT = 0

CCSDS_OMM_VERS = 2.0
CREATION_DATE  = 
ORIGINATOR     = 

OBJECT_NAME    = SL-14 R/B
OBJECT_ID      = 1988-001B
CENTER_NAME    = EARTH
REF_FRAME      = TEME
TIME_SYSTEM    = UTC
MEAN_ELEMENT_THEORY = SGP/SGP4

EPOCH          = 2026-01-03T09:38:39.165216
MEAN_MOTION    = 14.85451104
ECCENTRICITY   = .0019601
INCLINATION    = 82.5127
RA_OF_ASC_NODE = 256.7743
ARG_OF_PERICENTER = 93.9060
MEAN_ANOMALY   = 266.4397

EPHEMERIS_TYPE = 0
CLASSIFICATION_TYPE = U
NORAD_CAT_ID   = 18749
ELEMENT_SET_NO = 999
REV_AT_EPOCH   = 3233
BSTAR          = .10061E-3
MEAN_MOTION_DOT = .894E-5
MEAN_MOTION_DDOT = 0

