SL-14 R/B               
1 16792U 86046B   26003.47157492  .00001060  00000+0  11937-3 0  9999
2 16792  82.4829 141.7911 0024555  84.0340 276.3674 14.85515482116729
SL-14 R/B               
1 16882U 86055B   26003.46994457  .00001042  00000+0  11741-3 0  9991
2 16882  82.5198 187.9532 0018748 183.7088 241.8721 14.85558626109687
AJISAI (EGS)            
1 16908U 86061A   26003.43457271 -.00000077  00000+0  14579-3 0  9992
2 16908  50.0104 294.0081 0011317 120.3465 347.6990 12.44514590459870
COSMOS 1812             
1 17295U 87003A   26003.16646158  .00176169  00000+0  90090-3 0  9990
2 17295  82.4860 268.7428 0004745  60.1209 300.0530 15.80821533134037
SL-14 R/B               
1 17567U 87024B   26003.46132112  .00001089  00000+0  12131-3 0  9996
2 17567  82.5287 154.0492 0019520 114.9368 245.3879 14.86054614 78444
COSMOS 1833             
1 17589U 87027A   26003.52136295  .00000353  00000+0  21455-3 0  9998
2 17589  70.9183 102.9911 0023559 301.4546  58.4272 14.13035240  1114
SL-16 R/B               
1 17590U 87027B   26003.47205743  .00000094  00000+0  70305-4 0  9990
2 17590  71.0031  53.9245 0006949 236.9781 123.0676 14.17156365  6109
SL-14 R/B               
1 17912U 87038B   26003.49007272  .00000980  00000+0  11104-3 0  9994
2 17912  82.5013 358.2120 0019951  24.5612 335.6549 14.85288363 69555
COSMOS 1844             
1 17973U 87041A   26003.48387355  .00000206  00000+0  13172-3 0  9995
2 17973  70.8987 171.7089 0028862 122.7347 237.6563 14.14538584994369
SL-14 R/B               
1 18153U 87055B   26003.47816096  .00000888  00000+0  99728-4 0  9997
2 18153  82.4983  50.4992 0019574 226.3924 133.5668 14.85548144 60256
COSMOS 1867             
1 18187U 87060A   26003.46975910  .00000065  00000+0  62063-4 0  9999
2 18187  65.0102 129.3496 0013875 273.3994  86.5504 14.31490878 10606
SL-14 R/B               
1 18749U 88001B   26003.40184219  .00000894  00000+0  10061-3 0  9997
2 18749  82.5127 256.7743 0019601  93.9060 266.4397 14.85451104 32335
